#dP2021  6 18  0  0  0.00000000      96 __u+U ITR00 EXT  IAC
## 2162 432000.00000000   900.00000000 59383 0.0000000000000
+  116   C06C07C08C09C10C11C12C13C14C16C19C20C21C22C23C24C25
+        C26C27C28C29C30C32C33C34C35C36C37C38C39C40C41C42C43
+        C44C45C46E01E02E03E04E05E07E08E09E11E12E13E14E15E18
+        E19E21E24E25E26E27E30E31E33E36G01G02G03G04G05G06G07
+        G08G09G10G12G13G14G15G16G17G18G19G20G21G22G23G24G25
+        G26G27G28G29G30G31G32J01J02J03R01R02R03R04R05R07R08
+        R09R11R12R13R14R15R16R17R18R19R20R21R22R24  0  0  0
++         9 10  8  8 10  8  9  9 10 10  9  8  8  8  9 10  9
++         7  9 10  7  8  8  9  8 10  8  8 11  9 10  9  8 10
++         9  9  7  8  7  8  8  8  9  8  7  9  9  7  8  8  8
++         8  8  7  8  7  7  7  7  8  7  7  8  7  8  7  8  8
++         7  7  7  8  8  7  8  8  8  7  9  7  8  8  7  7  7
++         7  7  7  8  8  8  8 10 10  9  9  8  8  8  9  8 10
++        10  7  9  9  8  9  7  8  9  6  9  8 10 10  0  0  0
%c M  cc GPS ccc cccc cccc cccc cccc ccccc ccccc ccccc ccccc
%c cc cc ccc ccc cccc cccc cccc cccc ccccc ccccc ccccc ccccc
%f  0.0000000  0.000000000  0.00000000000  0.000000000000000
%f  0.0000000  0.000000000  0.00000000000  0.000000000000000
%i    0    0    0    0      0      0      0      0         0
%i    0    0    0    0      0      0      0      0         0
/* IAC                                ULTRA-RAPID PREDICTION
/* S/V CLOCKS ARE ALIGNED TO GNSS TIME                      
/* G:C1WC2W R:C1PC2P E:C1XC5X C:C2IC6I J:C1CC2S             
/* PCV:IGS14_2148 OL/AL:FES2004  NONE     YN ORB:CoN CLK:CoN
*  2021 06 18 22 30  0.00000000
PC06 -18465.968255  37559.416303  -1418.874266    519.540963
PC07  -8170.334042  28433.436613  30471.321848     59.167138
PC08 -21266.958680  20315.020005 -30276.213190   -895.484425
PC09  -9232.145345  38789.471829  13325.256370    438.067427
PC10   5664.005378  35069.666867  23272.311441    -28.331491
PC11  18817.360994 -17210.271382 -11231.824477    407.748505
PC12  16705.765714    456.980633 -22317.863569    839.791785
PC13  -7737.236311  23133.205943 -34339.730144    304.972243
PC14  13910.476239  -7784.958432  22932.535630    888.102980
PC16 -16844.570177  38523.049906    544.620344   -907.641197
PC19  -6839.294307  16925.345173 -21084.709270    877.499985
PC20 -17719.918262   -658.471738 -21520.542472   -872.049994
PC21  18529.415456  18820.968776   9075.013046   -935.364188
PC22   8313.316347  25296.554214  -8402.979878   -949.725511
PC23  -3672.816783 -16082.761282 -22497.792531   -940.204102
PC24  27729.995446  -1850.863724  -2407.785945   -899.254311
PC25  16226.162957 -13508.872905 -18240.343746   -898.925005
PC26  22784.079393   8897.350979  13399.475187    890.798247
PC27 -12090.047822 -10542.305609  22812.741810    550.513948
PC28   2419.147694 -23808.866556  14346.745333    -60.716827
PC29 -14589.635742  23652.365224   2519.658831    407.944149
PC30 -19109.930655   9027.375626  18202.167987    471.146433
PC32 -18639.755264 -18688.207292  -9016.392748   -924.830497
PC33   6882.872741 -16878.720221  21132.284098   -937.375593
PC34  19240.736435  -9752.329433 -17730.713445   -647.352782
PC35  -1817.688323  24026.552763 -14059.285446   -226.956811
PC36 -16888.543289  12992.554060  18047.031235   -728.064984
PC37 -21970.604607  -9885.700531 -14073.525809   -873.629051
PC38 -18088.070933  23105.435712 -30312.649197    156.150807
PC39 -13366.719513  39864.005630   1720.207387     31.865270
PC40    442.540521  31581.521953  28032.343649    172.304999
PC41  -8078.304048 -25251.229590   8759.804514   -948.983391
PC42  18087.439037   1457.002172  21252.396553   -914.096469
PC43  15008.268504 -23343.877576  -3052.958225   -782.605057
PC44  12472.307171  10349.669922 -22727.802303    246.368548
PC45   3844.835917  15952.765809  22578.551566    470.839342
PC46 -27593.918876   2577.445804   3421.550508    218.095985
PE01  -1487.882239  17348.489031  23939.584281  -1132.127511
PE02   1332.626394 -17402.938365 -23907.376169    227.047535
PE03   3221.599329 -28628.863735   6762.684387   -443.427506
PE04   9509.598281  25604.247514  11427.097789   -795.292858
PE05  14253.687752 -14885.184574  21253.128431   -271.877123
PE07 -16846.000848  -7360.544511 -23184.988522   -551.493814
PE08  -9738.427661 -25355.149396 -11740.618166   5983.851370
PE09  16773.412477   7115.939859  23341.064916   5629.092993
PE11  23443.958035  -1399.828780 -18040.686387   5833.344972
PE12   7674.015705  14317.078732 -24750.193350   5153.406462
PE13 -23183.141578   1154.548710  18362.089301    417.922443
PE14  17764.032048 -15778.086764 -17496.492082  -1470.844761
PE15  -7689.897016 -14217.664183  24797.270633    808.081739
PE18  -8508.554268  26686.674976   3386.506421  -1611.130649
PE19  -4676.516773  27856.738188  -8840.843954    305.656582
PE21 -19802.907521   5958.660184  21178.053954   -671.440823
PE24  27335.611361  10051.216986  -5239.790750   -962.094411
PE25  19959.925259  -5795.826427 -21068.286817   -537.344716
PE26 -24794.264705  16167.421043    280.312372   1677.595324
PE27 -27429.004922  -9348.473247   6051.982674    -57.218443
PE30 -17964.100830 -19384.765610 -13345.792803   2852.627802
PE31  18866.847921  19058.522125  12540.966194   -482.350514
PE33 -12286.727741  21181.772643 -16624.654205   -468.967069
PE36  25001.960076 -15814.115254  -1134.656325   -222.796655
PG01  -2236.962545  16077.828286 -21212.931349    654.296222
PG02  21655.151808 -14801.569393   5006.168593   -613.388364
PG03   6887.993216  19660.698007 -16628.937148   -195.813929
PG04   -333.844569  25931.505229   5600.499762   -200.253563
PG05   6945.991330 -13672.003382  21520.011788    -45.351085
PG06  25170.523454  -5975.795213  -6100.076805     28.643499
PG07  13400.352190  10582.096178  20815.811085    181.650661
PG08  -6166.587062  25217.629535   4759.833951    -25.586965
PG09   8340.609426  20290.878232  14899.154390   -351.759015
PG10 -23078.719105 -10455.780549  -8298.478336   -145.043020
PG12  -4265.463781 -19752.111749 -17561.552899    -56.853311
PG13  13102.360176 -20310.349806  10718.404247    146.635464
PG14  22589.434220  11115.404785  -8532.298379     66.377650
PG15   3284.884087 -25812.690343   3913.940766   -141.448740
PG16 -12806.645678   8159.163145  21587.891544   -343.445532
PG17  13476.628256   6265.907822 -21586.941951    460.592911
PG18 -15834.104599  -8332.992123  19639.878852    346.057317
PG19  15626.777572  -3458.318157 -21457.877563     15.158867
PG20   8625.258370 -13109.430375  21373.354274    521.035178
PG21 -10185.945803  17722.442497 -15977.275683    125.907511
PG22  -1679.755556  16691.514879 -20445.821573   -585.050425
PG23 -20350.414103 -16926.703192   2499.286615     95.276723
PG24   6509.772512 -18278.902828 -18213.908994    138.505322
PG25 -15537.832004 -19838.734018  -9073.285101    158.329343
PG26 -20311.414510   1041.734947  17161.229127    100.093665
PG27 -12067.810142  18659.758733  14085.404015   -149.348158
PG28  21279.040074   7249.077245 -13448.432057    552.384134
PG29  -5556.128555 -21364.702260  14678.023265   -366.352220
PG30  23049.030151   1652.694645  13366.186941   -440.631186
PG31 -25598.808400   7224.484953  -3472.134369   -123.832615
PG32 -14988.419298  -2918.134190 -21621.238072     17.968703
PJ01 -20208.751128  24082.966030 -23531.183145   -398.424055
PJ02 -28042.878773  21170.498957  28216.648686     -0.312538
PJ03 -31908.040573  26815.251589  11089.370226     -8.473400
PR01   8949.732814  -7249.170419  22764.080194     81.065283
PR02  -2564.437514 -22826.837422  11198.918899    482.886966
PR03 -11171.053686 -22121.403856  -6104.624442     37.933842
PR04 -13180.404441  -9051.329386 -19845.213087     91.907422
PR05  -7952.095075   9012.487103 -22481.090162     73.803031
PR07  11406.235146  21734.732677   6904.528424    -42.303394
PR08  13305.614430   8862.495372  19929.293215    -59.581366
PR09  -1547.385801  11169.626968  22899.066649     -1.402547
PR11  25145.769866   4282.471905    665.311400    -13.283286
PR12  19102.668539  -4595.182664 -16229.637150    238.301652
PR13   2375.272644 -10752.249031 -23021.256143    -56.440733
PR14 -16579.796364 -10694.019824 -16142.893816     65.493326
PR15 -25129.292874  -4367.570587    -63.205692    103.172794
PR16 -18305.969305   5629.046405  16898.232059    -16.570540
PR17  -3109.116387 -12012.014233  22281.249766    433.810614
PR18 -14447.227996   2482.419236  20867.231466     80.511149
PR19 -18702.215732  14753.935369   9120.511698   -148.278593
PR20 -11542.392903  19980.922897 -10825.892849    -51.096640
PR21   3946.432868  11091.852818 -22639.513768   -217.545458
PR22  15018.098431  -3467.419240 -20377.000184   -118.377636
PR24  10574.889541 -20233.179631  11373.412705     47.068535
EOF
